NORAD_CAT_ID,OBJECT_NAME,OBJECT_TYPE,EPOCH,MEAN_MOTION,ECCENTRICITY,INCLINATION,RA_OF_ASC_NODE,ARG_OF_PERICENTER,MEAN_ANOMALY,BSTAR,MEAN_MOTION_DOT,MEAN_MOTION_DDOT,TLE_LINE0,TLE_LINE1,TLE_LINE2,SEMIMAJOR_AXIS,PERIOD,APOGEE,PERIGEE,DECAYED
53275.0,STARLINK-4179,PAYLOAD,2022-12-30 04:45:14,15.08834941,0.0002532,53.2187,16.2307,28.7402,331.3730000000001,-8.7555e-05,-1.681e-05,0.0,0 STARLINK-4179,1 53275U 22086AK  22364.19808135 -.00001681  00000-0 -87555-4 0  9994,2 53275  53.2187  16.2307 0002532  28.7402 331.3730 15.08834941 25071,6917.896,95.438,541.512,538.009,0.0
53275.0,STARLINK-4179,PAYLOAD,2022-12-30 07:56:00,15.08840796,0.0002592,53.2185,15.6364,29.1418,330.9718,-4.1402e-05,-9.47e-06,0.0,0 STARLINK-4179,1 53275U 22086AK  22364.33055665 -.00000947  00000-0 -41402-4 0  9997,2 53275  53.2185  15.6364 0002592  29.1418 330.9718 15.08840796 25091,6917.878000000002,95.438,541.536,537.95,0.0
53275.0,STARLINK-4179,PAYLOAD,2022-12-30 17:28:18,15.088444,0.0002573999999999,53.2184,13.8519,29.409,330.7047,0.00016046,2.267e-05,0.0,0 STARLINK-4179,1 53275U 22086AK  22364.72798899  .00002267  00000-0  16046-3 0  9993,2 53275  53.2184  13.8519 0002574  29.4090 330.7047 15.08844400 25157,6917.8669999999975,95.437,541.513,537.951,0.0
53275.0,STARLINK-4179,PAYLOAD,2022-12-31 03:00:36,15.0885019,0.0002561,53.2188,12.0673,28.0773,332.0357,0.00032334,4.863e-05,0.0,0 STARLINK-4179,1 53275U 22086AK  22365.12542060  .00004863  00000-0  32334-3 0  9997,2 53275  53.2188  12.0673 0002561  28.0773 332.0357 15.08850190 25211,6917.849,95.437,541.486,537.943,0.0
53275.0,STARLINK-4179,PAYLOAD,2022-12-31 10:57:32,15.08842279,0.0002613,53.2182,10.581,27.8582,332.255,0.00028181,4.2e-05,0.0,0 STARLINK-4179,1 53275U 22086AK  22365.45662823  .00004200  00000-0  28181-3 0  9993,2 53275  53.2182  10.5810 0002613  27.8582 332.2550 15.08842279 25265,6917.873000000001,95.437,541.5459999999998,537.931,0.0
53275.0,STARLINK-4179,PAYLOAD,2022-12-31 17:19:05,15.08836697,0.000259,53.2183,9.3911,27.6247,332.4883,0.00021671,3.162e-05,0.0,0 STARLINK-4179,1 53275U 22086AK  22365.72159348  .00003162  00000-0  21671-3 0  9999,2 53275  53.2183   9.3911 0002590  27.6247 332.4883 15.08836697 25475,6917.89,95.438,541.547,537.964,0.0
53275.0,STARLINK-4179,PAYLOAD,2023-01-01 12:23:44,15.0882426,0.0002578,53.2187,5.8236,29.4658,330.648,-7.8049e-05,-1.53e-05,0.0,0 STARLINK-4179,1 53275U 22086AK  23001.51649087 -.00001530  00000-0 -78049-4 0  9999,2 53275  53.2187   5.8236 0002578  29.4658 330.6480 15.08824260 25423,6917.929,95.439,541.577,538.01,0.0
53275.0,STARLINK-4179,PAYLOAD,2023-01-02 01:06:49,15.08834747,0.0002477,53.2192,3.4445,21.7172,338.3925,-0.00012139,-2.22e-05,0.0,0 STARLINK-4179,1 53275U 22086AK  23002.04640650 -.00002220  00000-0 -12139-3 0  9999,2 53275  53.2192   3.4445 0002477  21.7172 338.3925 15.08834747 25508,6917.896,95.438,541.475,538.048,0.0
53275.0,STARLINK-4179,PAYLOAD,2023-01-02 09:03:44,15.0884608,0.0002435,53.2197,1.957,33.7007,326.414,-7.8866e-05,-1.544e-05,0.0,0 STARLINK-4179,1 53275U 22086AK  23002.37759860 -.00001544  00000-0 -78866-4 0  9997,2 53275  53.2197   1.9570 0002435  33.7007 326.4140 15.08846080 25554,6917.861999999999,95.437,541.411,538.0419999999998,0.0
53275.0,STARLINK-4179,PAYLOAD,2023-01-02 17:00:39,15.08847495,0.0002755,53.2191,0.4703,31.6348,328.4809,6.1281e-05,6.87e-06,0.0,0 STARLINK-4179,1 53275U 22086AK  23002.70879345  .00000687  00000-0  61281-4 0  9993,2 53275  53.2191   0.4703 0002755  31.6348 328.4809 15.08847495 25779,6917.857,95.437,541.628,537.817,0.0
53275.0,STARLINK-4179,PAYLOAD,2023-01-03 08:54:31,15.08836051,0.000274,53.2183,357.4979,26.5136,333.5996,0.00015824,2.231e-05,0.0,0 STARLINK-4179,1 53275U 22086AK  23003.37120035  .00002231  00000-0  15824-3 0  9990,2 53275  53.2183 357.4979 0002740  26.5136 333.5996 15.08836051 25873,6917.892,95.438,541.653,537.862,0.0
53275.0,STARLINK-4179,PAYLOAD,2023-01-03 16:51:27,15.0882807,0.0002156,53.2177,356.0108,30.5118,329.5999,0.00019856,2.872e-05,0.0,0 STARLINK-4179,1 53275U 22086AK  23003.70240505  .00002872  00000-0  19856-3 0  9992,2 53275  53.2177 356.0108 0002156  30.5118 329.5999 15.08828070 25758,6917.917,95.438,541.273,538.29,0.0
53275.0,STARLINK-4179,PAYLOAD,2023-01-04 10:20:41,15.088439800000002,0.0002393,53.2185,352.7376,34.3126,325.802,9.7145e-05,1.258e-05,0.0,0 STARLINK-4179,1 53275U 22086AK  23004.43104115  .00001258  00000-0  97145-4 0  9994,2 53275  53.2185 352.7376 0002393  34.3126 325.8020 15.08843980 25864,6917.868,95.437,541.389,538.078,0.0
53275.0,STARLINK-4179,PAYLOAD,2023-01-04 16:42:13,15.08855026,0.0002299999999999,53.2184,351.5479,34.6181,325.496,0.00013778,1.906e-05,0.0,0 STARLINK-4179,1 53275U 22086AK  23004.69599191  .00001906  00000-0  13778-3 0  9993,2 53275  53.2184 351.5479 0002300  34.6181 325.4960 15.08855026 25904,6917.834,95.437,541.2909999999998,538.1080000000002,0.0
53275.0,STARLINK-4179,PAYLOAD,2023-01-05 10:11:27,15.08856938,0.0002751,53.2173,348.2784,35.1382,324.9791,0.00017499,2.499e-05,0.0,0 STARLINK-4179,1 53275U 22086AK  23005.42462531  .00002499  00000-0  17499-3 0  9994,2 53275  53.2173 348.2784 0002751  35.1382 324.9791 15.08856938 26183,6917.829000000002,95.436,541.597,537.7909999999998,0.0
53275.0,STARLINK-4179,PAYLOAD,2023-01-06 05:16:05,15.08849976,0.0002543,53.2179,344.7066,47.473,312.6476,0.00015661,2.206e-05,0.0,0 STARLINK-4179,1 53275U 22086AK  23006.21950505  .00002206  00000-0  15661-3 0  9990,2 53275  53.2179 344.7066 0002543  47.4730 312.6476 15.08849976 26138,6917.85,95.437,541.474,537.956,0.0
53275.0,STARLINK-4179,PAYLOAD,2023-01-06 10:02:16,15.08824532,0.0002422,53.2194,343.8179,26.7771,333.3346,-0.00010283,-1.924e-05,0.0,0 STARLINK-4179,1 53275U 22086AK  23006.41824783 -.00001924  00000-0 -10283-3 0  9993,2 53275  53.2194 343.8179 0002422  26.7771 333.3346 15.08824532 26161,6917.928000000001,95.439,541.4680000000002,538.117,0.0
53275.0,STARLINK-4179,PAYLOAD,2023-01-06 22:45:20,15.08833146,0.0002544,53.2184,341.44,23.5847,336.5262,-0.00024738,-4.223e-05,0.0,0 STARLINK-4179,1 53275U 22086AK  23006.94815570 -.00004223  00000-0 -24738-3 0  9990,2 53275  53.2184 341.4400 0002544  23.5847 336.5262 15.08833146 26247,6917.901,95.438,541.526,538.006,0.0
53275.0,STARLINK-4179,PAYLOAD,2023-01-07 05:06:52,15.08845311,0.0002583999999999,53.2188,340.2501,30.0431,330.0709,2.0833e-06,-2.55e-06,0.0,0 STARLINK-4179,1 53275U 22086AK  23007.21311068 -.00000255  00000-0  20833-5 0  9998,2 53275  53.2188 340.2501 0002584  30.0431 330.0709 15.08845311 26451,6917.864000000001,95.437,541.5169999999998,537.942,0.0
53275.0,STARLINK-4179,PAYLOAD,2023-01-07 09:53:02,15.08848147,0.000259,53.2169,339.3589,30.3982,329.716,1.0002e-05,-1.29e-06,0.0,0 STARLINK-4179,1 53275U 22086AK  23007.41183002 -.00000129  00000-0  10002-4 0  9991,2 53275  53.2169 339.3589 0002590  30.3982 329.7160 15.08848147 26317,6917.855,95.437,541.512,537.929,0.0
53275.0,STARLINK-4179,PAYLOAD,2023-01-07 14:39:12,15.08828087,0.0002915,53.2172,338.4652,37.0607,323.0586,-0.00015255,-2.715e-05,0.0,0 STARLINK-4179,1 53275U 22086AK  23007.61056087 -.00002715  00000-0 -15255-3 0  9993,2 53275  53.2172 338.4652 0002915  37.0607 323.0586 15.08828087 26344,6917.917,95.438,541.798,537.765,0.0
53275.0,STARLINK-4179,PAYLOAD,2023-01-08 09:43:50,15.08840943,0.0002596,53.2185,334.8977,30.1297,329.9844,0.00034185,5.157e-05,0.0,0 STARLINK-4179,1 53275U 22086AK  23008.40544160  .00005157  00000-0  34185-3 0  9999,2 53275  53.2185 334.8977 0002596  30.1297 329.9844 15.08840943 26462,6917.8780000000015,95.437,541.538,537.947,0.0
53275.0,STARLINK-4179,PAYLOAD,2023-01-08 14:29:59,15.08833891,0.0002631,53.2193,334.0048,30.4841,329.6304,0.00016692,2.369e-05,0.0,0 STARLINK-4179,1 53275U 22086AK  23008.60416555  .00002369  00000-0  16692-3 0  9992,2 53275  53.2193 334.0048 0002631  30.4841 329.6304 15.08833891 26495,6917.899,95.438,541.5840000000002,537.944,0.0
53275.0,STARLINK-4179,PAYLOAD,2023-01-09 06:23:51,15.08838368,0.0002642,53.2186,331.0317,32.1648,327.9505,0.00012681,1.73e-05,0.0,0 STARLINK-4179,1 53275U 22086AK  23009.26656600  .00001730  00000-0  12681-3 0  9997,2 53275  53.2186 331.0317 0002642  32.1648 327.9505 15.08838368 26767,6917.885,95.438,541.578,537.923,0.0
53275.0,STARLINK-4179,PAYLOAD,2023-01-09 22:17:42,15.08842131,0.0002618,53.2185,328.0578,33.7988,326.3171,0.0002332,3.425e-05,0.0,0 STARLINK-4179,1 53275U 22086AK  23009.92896635  .00003425  00000-0  23320-3 0  9999,2 53275  53.2185 328.0578 0002618  33.7988 326.3171 15.08842131 26864,6917.874,95.437,541.55,537.928,0.0
53275.0,STARLINK-4179,PAYLOAD,2023-01-10 06:14:38,15.08839625,0.0002646,53.218,326.5713,30.921,329.1937,6.0298e-05,6.71e-06,0.0,0 STARLINK-4179,1 53275U 22086AK  23010.26016830  .00000671  00000-0  60298-4 0  9995,2 53275  53.2180 326.5713 0002646  30.9210 329.1937 15.08839625 26743,6917.882,95.438,541.577,537.9159999999998,0.0
53275.0,STARLINK-4179,PAYLOAD,2023-01-10 14:11:34,15.08836992,0.0002474,53.2175,325.0837,31.3077,328.8062,9.4412e-06,-1.38e-06,0.0,0 STARLINK-4179,1 53275U 22086AK  23010.59136970 -.00000138  00000-0  94412-5 0  9994,2 53275  53.2175 325.0837 0002474  31.3077 328.8062 15.08836992 26966,6917.89,95.438,541.466,538.043,0.0
53275.0,STARLINK-4179,PAYLOAD,2023-01-10 20:33:07,15.08836059,0.0002494,53.2173,323.8943,33.7156,326.3994,6.6995e-05,7.78e-06,0.0,0 STARLINK-4179,1 53275U 22086AK  23010.85633164  .00000778  00000-0  66995-4 0  9993,2 53275  53.2173 323.8943 0002494  33.7156 326.3994 15.08836059 27001,6917.892,95.438,541.4830000000002,538.0319999999998,0.0
53275.0,STARLINK-4179,PAYLOAD,2023-01-11 14:02:20,15.08856709,0.0002329,53.2181,320.6234,35.2803,324.8343,0.00033799,5.097e-05,0.0,0 STARLINK-4179,1 53275U 22086AK  23011.58496066  .00005097  00000-0  33799-3 0  9996,2 53275  53.2181 320.6234 0002329  35.2803 324.8343 15.08856709 26948,6917.8290000000015,95.436,541.305,538.0830000000002,0.0
